[
  {
    "OBJECT_NAME": "STARLINK-1643",
    "OBJECT_ID": "20057V",
    "EPOCH": "2025-11-11T08:00:03.000384",
    "MEAN_MOTION": 15.86171694,
    "ECCENTRICITY": 0.0004297,
    "INCLINATION": 53.0374,
    "RA_OF_ASC_NODE": 73.1604,
    "ARG_OF_PERICENTER": 307.6656,
    "MEAN_ANOMALY": 165.0213,
    "EPHEMERIS_TYPE": 0,
    "CLASSIFICATION_TYPE": "U",
    "NORAD_CAT_ID": 46136,
    "ELEMENT_SET_NO": 999,
    "REV_AT_EPOCH": 592,
    "BSTAR": 0.0022443,
    "MEAN_MOTION_DOT": 0.00609908,
    "MEAN_MOTION_DDOT": 0.0,
    "TLE_LINE1": "1 46136U 20057V   25315.33336806  .00609908  00000+0  22443-2 0  9990",
    "TLE_LINE2": "2 46136  53.0374  73.1604 0004297 307.6656 165.0213 15.86171694  5922",
    "COMMENT": "Grouped by shell and plane from TLE"
  },
  {
    "OBJECT_NAME": "STARLINK-2595",
    "OBJECT_ID": "21038BG",
    "EPOCH": "2025-11-11T08:00:03.000384",
    "MEAN_MOTION": 15.64407172,
    "ECCENTRICITY": 0.0004826,
    "INCLINATION": 53.0359,
    "RA_OF_ASC_NODE": 77.815,
    "ARG_OF_PERICENTER": 321.1713,
    "MEAN_ANOMALY": 10.5869,
    "EPHEMERIS_TYPE": 0,
    "CLASSIFICATION_TYPE": "U",
    "NORAD_CAT_ID": 48407,
    "ELEMENT_SET_NO": 999,
    "REV_AT_EPOCH": 589,
    "BSTAR": 0.0024365000000000003,
    "MEAN_MOTION_DOT": 0.00244905,
    "MEAN_MOTION_DDOT": 0.0,
    "TLE_LINE1": "1 48407U 21038BG  25315.33336806  .00244905  00000+0  24365-2 0  9990",
    "TLE_LINE2": "2 48407  53.0359  77.8150 0004826 321.1713  10.5869 15.64407172  5894",
    "COMMENT": "Grouped by shell and plane from TLE"
  },
  {
    "OBJECT_NAME": "STARLINK-4361",
    "OBJECT_ID": "22099AE",
    "EPOCH": "2025-11-11T08:00:03.000384",
    "MEAN_MOTION": 15.7332451,
    "ECCENTRICITY": 0.000141,
    "INCLINATION": 97.6538,
    "RA_OF_ASC_NODE": 77.3915,
    "ARG_OF_PERICENTER": 50.8154,
    "MEAN_ANOMALY": 159.6091,
    "EPHEMERIS_TYPE": 0,
    "CLASSIFICATION_TYPE": "U",
    "NORAD_CAT_ID": 53493,
    "ELEMENT_SET_NO": 999,
    "REV_AT_EPOCH": 580,
    "BSTAR": 0.0068709,
    "MEAN_MOTION_DOT": 0.01052905,
    "MEAN_MOTION_DDOT": 0.0,
    "TLE_LINE1": "1 53493U 22099AE  25315.33336806  .01052905  00000+0  68709-2 0  9997",
    "TLE_LINE2": "2 53493  97.6538  77.3915 0001410  50.8154 159.6091 15.73324510  5800",
    "COMMENT": "Grouped by shell and plane from TLE"
  },
  {
    "OBJECT_NAME": "STARLINK-31841",
    "OBJECT_ID": "24090C",
    "EPOCH": "2025-11-11T08:00:03.000384",
    "MEAN_MOTION": 15.82074548,
    "ECCENTRICITY": 0.0026791,
    "INCLINATION": 42.9832,
    "RA_OF_ASC_NODE": 78.1596,
    "ARG_OF_PERICENTER": 345.9044,
    "MEAN_ANOMALY": 27.4389,
    "EPHEMERIS_TYPE": 0,
    "CLASSIFICATION_TYPE": "U",
    "NORAD_CAT_ID": 59732,
    "ELEMENT_SET_NO": 999,
    "REV_AT_EPOCH": 594,
    "BSTAR": 0.001134,
    "MEAN_MOTION_DOT": 0.00252183,
    "MEAN_MOTION_DDOT": 0.0,
    "TLE_LINE1": "1 59732U 24090C   25315.33336806  .00252183  00000+0  11340-2 0  9990",
    "TLE_LINE2": "2 59732  42.9832  78.1596 0026791 345.9044  27.4389 15.82074548  5941",
    "COMMENT": "Grouped by shell and plane from TLE"
  },
  {
    "OBJECT_NAME": "STARLINK-11118 [DTC]",
    "OBJECT_ID": "24091B",
    "EPOCH": "2025-11-11T07:05:17.402784",
    "MEAN_MOTION": 15.69654592,
    "ECCENTRICITY": 0.0001616,
    "INCLINATION": 53.1567,
    "RA_OF_ASC_NODE": 70.2379,
    "ARG_OF_PERICENTER": 107.2667,
    "MEAN_ANOMALY": 252.8528,
    "EPHEMERIS_TYPE": 0,
    "CLASSIFICATION_TYPE": "U",
    "NORAD_CAT_ID": 59754,
    "ELEMENT_SET_NO": 999,
    "REV_AT_EPOCH": 8691,
    "BSTAR": 0.00014052999999999998,
    "MEAN_MOTION_DOT": 0.00016431,
    "MEAN_MOTION_DDOT": 0.0,
    "TLE_LINE1": "1 59754U 24091B   25315.29534031  .00016431  00000+0  14053-3 0  9999",
    "TLE_LINE2": "2 59754  53.1567  70.2379 0001616 107.2667 252.8528 15.69654592 86918",
    "COMMENT": "Grouped by shell and plane from TLE"
  },
  {
    "OBJECT_NAME": "STARLINK-11132 [DTC]",
    "OBJECT_ID": "24091C",
    "EPOCH": "2025-11-11T00:44:24.387648",
    "MEAN_MOTION": 15.69711749,
    "ECCENTRICITY": 0.000154,
    "INCLINATION": 53.1606,
    "RA_OF_ASC_NODE": 71.429,
    "ARG_OF_PERICENTER": 85.9092,
    "MEAN_ANOMALY": 274.2102,
    "EPHEMERIS_TYPE": 0,
    "CLASSIFICATION_TYPE": "U",
    "NORAD_CAT_ID": 59755,
    "ELEMENT_SET_NO": 999,
    "REV_AT_EPOCH": 8687,
    "BSTAR": 1.9962e-05,
    "MEAN_MOTION_DOT": 1.83e-05,
    "MEAN_MOTION_DDOT": 0.0,
    "TLE_LINE1": "1 59755U 24091C   25315.03083782  .00001830  00000+0  19962-4 0  9996",
    "TLE_LINE2": "2 59755  53.1606  71.4290 0001540  85.9092 274.2102 15.69711749 86877",
    "COMMENT": "Grouped by shell and plane from TLE"
  },
  {
    "OBJECT_NAME": "STARLINK-11131 [DTC]",
    "OBJECT_ID": "24091D",
    "EPOCH": "2025-11-11T00:37:20.062560",
    "MEAN_MOTION": 15.69719616,
    "ECCENTRICITY": 8.32e-05,
    "INCLINATION": 53.1607,
    "RA_OF_ASC_NODE": 71.3996,
    "ARG_OF_PERICENTER": 83.4323,
    "MEAN_ANOMALY": 276.679,
    "EPHEMERIS_TYPE": 0,
    "CLASSIFICATION_TYPE": "U",
    "NORAD_CAT_ID": 59756,
    "ELEMENT_SET_NO": 999,
    "REV_AT_EPOCH": 8687,
    "BSTAR": 2.1921e-05,
    "MEAN_MOTION_DOT": 2.069e-05,
    "MEAN_MOTION_DDOT": 0.0,
    "TLE_LINE1": "1 59756U 24091D   25315.02592665  .00002069  00000+0  21921-4 0  9994",
    "TLE_LINE2": "2 59756  53.1607  71.3996 0000832  83.4323 276.6790 15.69719616 86874",
    "COMMENT": "Grouped by shell and plane from TLE"
  },
  {
    "OBJECT_NAME": "STARLINK-11114 [DTC]",
    "OBJECT_ID": "24091E",
    "EPOCH": "2025-11-10T09:13:26.510304",
    "MEAN_MOTION": 15.69726889,
    "ECCENTRICITY": 0.0001263,
    "INCLINATION": 53.1579,
    "RA_OF_ASC_NODE": 74.5262,
    "ARG_OF_PERICENTER": 100.249,
    "MEAN_ANOMALY": 259.867,
    "EPHEMERIS_TYPE": 0,
    "CLASSIFICATION_TYPE": "U",
    "NORAD_CAT_ID": 59757,
    "ELEMENT_SET_NO": 999,
    "REV_AT_EPOCH": 8677,
    "BSTAR": 1.1353000000000002e-06,
    "MEAN_MOTION_DOT": -4.51e-06,
    "MEAN_MOTION_DDOT": 0.0,
    "TLE_LINE1": "1 59757U 24091E   25314.38433461 -.00000451  00000+0  11353-5 0  9994",
    "TLE_LINE2": "2 59757  53.1579  74.5262 0001263 100.2490 259.8670 15.69726889 86775",
    "COMMENT": "Grouped by shell and plane from TLE"
  },
  {
    "OBJECT_NAME": "STARLINK-11105 [DTC]",
    "OBJECT_ID": "24091F",
    "EPOCH": "2025-11-10T15:13:06.848256",
    "MEAN_MOTION": 15.69715696,
    "ECCENTRICITY": 0.0001464,
    "INCLINATION": 53.1587,
    "RA_OF_ASC_NODE": 73.2324,
    "ARG_OF_PERICENTER": 68.2027,
    "MEAN_ANOMALY": 291.9146,
    "EPHEMERIS_TYPE": 0,
    "CLASSIFICATION_TYPE": "U",
    "NORAD_CAT_ID": 59758,
    "ELEMENT_SET_NO": 999,
    "REV_AT_EPOCH": 8681,
    "BSTAR": 7.628700000000001e-06,
    "MEAN_MOTION_DOT": 3.35e-06,
    "MEAN_MOTION_DDOT": 0.0,
    "TLE_LINE1": "1 59758U 24091F   25314.63410704  .00000335  00000+0  76287-5 0  9995",
    "TLE_LINE2": "2 59758  53.1587  73.2324 0001464  68.2027 291.9146 15.69715696 86816",
    "COMMENT": "Grouped by shell and plane from TLE"
  },
  {
    "OBJECT_NAME": "STARLINK-11097 [DTC]",
    "OBJECT_ID": "24091G",
    "EPOCH": "2025-11-10T15:06:02.892960",
    "MEAN_MOTION": 15.69711987,
    "ECCENTRICITY": 7.22e-05,
    "INCLINATION": 53.1565,
    "RA_OF_ASC_NODE": 73.183,
    "ARG_OF_PERICENTER": 32.6499,
    "MEAN_ANOMALY": 327.4563,
    "EPHEMERIS_TYPE": 0,
    "CLASSIFICATION_TYPE": "U",
    "NORAD_CAT_ID": 59759,
    "ELEMENT_SET_NO": 999,
    "REV_AT_EPOCH": 8681,
    "BSTAR": 6.5365e-06,
    "MEAN_MOTION_DOT": 2.04e-06,
    "MEAN_MOTION_DDOT": 0.0,
    "TLE_LINE1": "1 59759U 24091G   25314.62920015  .00000204  00000+0  65365-5 0  9996",
    "TLE_LINE2": "2 59759  53.1565  73.1830 0000722  32.6499 327.4563 15.69711987 86815",
    "COMMENT": "Grouped by shell and plane from TLE"
  },
  {
    "OBJECT_NAME": "STARLINK-11117 [DTC]",
    "OBJECT_ID": "24091J",
    "EPOCH": "2025-11-10T11:48:34.205184",
    "MEAN_MOTION": 15.69698148,
    "ECCENTRICITY": 0.0002099,
    "INCLINATION": 53.1582,
    "RA_OF_ASC_NODE": 73.7446,
    "ARG_OF_PERICENTER": 76.6252,
    "MEAN_ANOMALY": 283.5,
    "EPHEMERIS_TYPE": 0,
    "CLASSIFICATION_TYPE": "U",
    "NORAD_CAT_ID": 59761,
    "ELEMENT_SET_NO": 999,
    "REV_AT_EPOCH": 8679,
    "BSTAR": 0.0,
    "MEAN_MOTION_DOT": -1.102e-05,
    "MEAN_MOTION_DDOT": 0.0,
    "TLE_LINE1": "1 59761U 24091J   25314.49206256 -.00001102  00000+0 -42292-5 0  9992",
    "TLE_LINE2": "2 59761  53.1582  73.7446 0002099  76.6252 283.5000 15.69698148 86798",
    "COMMENT": "Grouped by shell and plane from TLE"
  },
  {
    "OBJECT_NAME": "STARLINK-11732 [DTC]",
    "OBJECT_ID": "25127A",
    "EPOCH": "2025-11-11T01:20:37.295808",
    "MEAN_MOTION": 15.70930914,
    "ECCENTRICITY": 0.0001557,
    "INCLINATION": 42.9996,
    "RA_OF_ASC_NODE": 79.6902,
    "ARG_OF_PERICENTER": 41.316,
    "MEAN_ANOMALY": 318.7825,
    "EPHEMERIS_TYPE": 0,
    "CLASSIFICATION_TYPE": "U",
    "NORAD_CAT_ID": 64370,
    "ELEMENT_SET_NO": 999,
    "REV_AT_EPOCH": 2484,
    "BSTAR": 0.0028105,
    "MEAN_MOTION_DOT": 0.00378545,
    "MEAN_MOTION_DDOT": 0.0,
    "TLE_LINE1": "1 64370U 25127A   25315.05598722  .00378545  00000+0  28105-2 0  9990",
    "TLE_LINE2": "2 64370  42.9996  79.6902 0001557  41.3160 318.7825 15.70930914 24848",
    "COMMENT": "Grouped by shell and plane from TLE"
  },
  {
    "OBJECT_NAME": "STARLINK-11731 [DTC]",
    "OBJECT_ID": "25127B",
    "EPOCH": "2025-11-11T01:43:33.042144",
    "MEAN_MOTION": 15.709271,
    "ECCENTRICITY": 8.02e-05,
    "INCLINATION": 42.9994,
    "RA_OF_ASC_NODE": 79.8178,
    "ARG_OF_PERICENTER": 346.6604,
    "MEAN_ANOMALY": 13.4242,
    "EPHEMERIS_TYPE": 0,
    "CLASSIFICATION_TYPE": "U",
    "NORAD_CAT_ID": 64371,
    "ELEMENT_SET_NO": 999,
    "REV_AT_EPOCH": 2484,
    "BSTAR": 0.0028428,
    "MEAN_MOTION_DOT": 0.00383065,
    "MEAN_MOTION_DDOT": 0.0,
    "TLE_LINE1": "1 64371U 25127B   25315.07191021  .00383065  00000+0  28428-2 0  9995",
    "TLE_LINE2": "2 64371  42.9994  79.8178 0000802 346.6604  13.4242 15.70927100 24845",
    "COMMENT": "Grouped by shell and plane from TLE"
  }
]